{
    "links": {
        "self": "http://www.neowsapp.com/rest/v1/neo/3555013?api_key=iIulBulltgU6a56xZRHN4H3l9WmuAYTsLGpBGhQ2"
    },
    "id": "3555013",
    "neo_reference_id": "3555013",
    "name": "(2011 AM1)",
    "designation": "2011 AM1",
    "nasa_jpl_url": "http://ssd.jpl.nasa.gov/sbdb.cgi?sstr=3555013",
    "absolute_magnitude_h": 20.2,
    "estimated_diameter": {
        "kilometers": {
            "estimated_diameter_min": 0.2424124811,
            "estimated_diameter_max": 0.5420507863
        },
        "meters": {
            "estimated_diameter_min": 242.4124811008,
            "estimated_diameter_max": 542.0507863358
        },
        "miles": {
            "estimated_diameter_min": 0.1506280858,
            "estimated_diameter_max": 0.3368146392
        },
        "feet": {
            "estimated_diameter_min": 795.3165644948,
            "estimated_diameter_max": 1778.3819018419
        }
    },
    "is_potentially_hazardous_asteroid": false,
    "close_approach_data": [
        {
            "close_approach_date": "2010-12-18",
            "close_approach_date_full": "2010-Dec-18 13:21",
            "epoch_date_close_approach": 1292678460000,
            "relative_velocity": {
                "kilometers_per_second": "17.6498231836",
                "kilometers_per_hour": "63539.3634610734",
                "miles_per_hour": "39480.8894794653"
            },
            "miss_distance": {
                "astronomical": "0.2452471935",
                "lunar": "95.4011582715",
                "kilometers": "36688457.771077845",
                "miles": "22797150.541030461"
            },
            "orbiting_body": "Earth"
        }
    ],
    "orbital_data": {
        "orbit_id": "11",
        "orbit_determination_date": "2017-04-06 08:55:05",
        "first_observation_date": "2011-01-03",
        "last_observation_date": "2011-02-11",
        "data_arc_in_days": 39,
        "observations_used": 71,
        "orbit_uncertainty": "7",
        "minimum_orbit_intersection": ".228501",
        "jupiter_tisserand_invariant": "3.272",
        "epoch_osculation": "2459000.5",
        "eccentricity": ".4717624181585456",
        "semi_major_axis": "2.274929932062855",
        "inclination": "32.34013346140471",
        "ascending_node_longitude": "90.53251763685893",
        "orbital_period": "1253.286796148225",
        "perihelion_distance": "1.201703486171626",
        "perihelion_argument": "345.1132912942907",
        "aphelion_distance": "3.348156377954083",
        "perihelion_time": "2459292.090364849863",
        "mean_anomaly": "276.2422107465212",
        "mean_motion": ".2872447081596982",
        "equinox": "J2000",
        "orbit_class": {
            "orbit_class_type": "AMO",
            "orbit_class_description": "Near-Earth asteroid orbits similar to that of 1221 Amor",
            "orbit_class_range": "1.017 AU < q (perihelion) < 1.3 AU"
        }
    },
    "is_sentry_object": false
}